{"type": "FeatureCollection", "features": [{"type": "Feature", "geometry": {"type": "Point", "coordinates": [-81.150715, 25.867927]}, "properties": {"id": 1, "diameter_m": 195.0, "peak_height_m": 20.6, "circularity": 0.72, "ring_forest": 0.25, "profile_m": [19.4, 17.3, 14.5, 12.9, 11.2, 10.0, 8.5, 7.9], "centre_rise_m": 8.2, "km_from_boardwalk": 0.33}}, {"type": "Feature", "geometry": {"type": "Point", "coordinates": [-81.160038, 25.861406]}, "properties": {"id": 2, "diameter_m": 97.0, "peak_height_m": 17.9, "circularity": 0.68, "ring_forest": 0.06, "profile_m": [18.3, 16.5, 13.7, 11.7, 10.2, 7.9, 5.1, 4.0], "centre_rise_m": 8.1, "km_from_boardwalk": 0.94}}, {"type": "Feature", "geometry": {"type": "Point", "coordinates": [-81.18729, 25.869979]}, "properties": {"id": 3, "diameter_m": 112.0, "peak_height_m": 16.6, "circularity": 0.61, "ring_forest": 0.12, "profile_m": [17.3, 16.1, 14.3, 11.2, 7.6, 6.8, 4.9, 3.4], "centre_rise_m": 9.7, "km_from_boardwalk": 3.34}}, {"type": "Feature", "geometry": {"type": "Point", "coordinates": [-81.163397, 25.859454]}, "properties": {"id": 4, "diameter_m": 159.5, "peak_height_m": 16.3, "circularity": 0.77, "ring_forest": 0.19, "profile_m": [17.1, 15.4, 13.8, 12.9, 9.8, 5.6, 3.7, 3.4], "centre_rise_m": 7.3, "km_from_boardwalk": 1.33}}, {"type": "Feature", "geometry": {"type": "Point", "coordinates": [-81.162626, 25.853523]}, "properties": {"id": 5, "diameter_m": 132.3, "peak_height_m": 16.1, "circularity": 0.71, "ring_forest": 0.23, "profile_m": [17.5, 15.9, 13.6, 10.7, 8.7, 6.4, 5.1, 4.6], "centre_rise_m": 8.8, "km_from_boardwalk": 1.81}}, {"type": "Feature", "geometry": {"type": "Point", "coordinates": [-81.188221, 25.827877]}, "properties": {"id": 6, "diameter_m": 122.2, "peak_height_m": 15.8, "circularity": 0.82, "ring_forest": 0.18, "profile_m": [11.7, 12.3, 11.5, 10.4, 8.8, 7.2, 6.1, 5.9], "centre_rise_m": 2.9, "km_from_boardwalk": 5.6}}, {"type": "Feature", "geometry": {"type": "Point", "coordinates": [-81.151887, 25.836926]}, "properties": {"id": 7, "diameter_m": 159.8, "peak_height_m": 15.2, "circularity": 0.65, "ring_forest": 0.24, "profile_m": [11.5, 10.6, 11.1, 11.3, 9.9, 7.7, 6.0, 5.7], "centre_rise_m": 1.6, "km_from_boardwalk": 3.44}}, {"type": "Feature", "geometry": {"type": "Point", "coordinates": [-81.139443, 25.871523]}, "properties": {"id": 8, "diameter_m": 81.7, "peak_height_m": 15.2, "circularity": 0.8, "ring_forest": 0.0, "profile_m": [16.6, 14.5, 12.7, 10.6, 8.8, 6.9, 5.1, 4.1], "centre_rise_m": 7.8, "km_from_boardwalk": 1.51}}, {"type": "Feature", "geometry": {"type": "Point", "coordinates": [-81.165566, 25.86692]}, "properties": {"id": 9, "diameter_m": 133.7, "peak_height_m": 15.2, "circularity": 0.61, "ring_forest": 0.1, "profile_m": [14.6, 14.3, 13.8, 9.8, 8.3, 6.3, 4.7, 3.7], "centre_rise_m": 6.3, "km_from_boardwalk": 1.16}}, {"type": "Feature", "geometry": {"type": "Point", "coordinates": [-81.182044, 25.869213]}, "properties": {"id": 10, "diameter_m": 121.6, "peak_height_m": 15.2, "circularity": 0.79, "ring_forest": 0.1, "profile_m": [11.3, 10.1, 8.5, 8.3, 8.7, 8.5, 6.3, 4.5], "centre_rise_m": 2.6, "km_from_boardwalk": 2.81}}, {"type": "Feature", "geometry": {"type": "Point", "coordinates": [-81.187095, 25.863044]}, "properties": {"id": 11, "diameter_m": 102.9, "peak_height_m": 15.1, "circularity": 0.6, "ring_forest": 0.2, "profile_m": [15.8, 14.9, 12.3, 11.0, 8.2, 6.1, 5.5, 4.8], "centre_rise_m": 7.6, "km_from_boardwalk": 3.36}}, {"type": "Feature", "geometry": {"type": "Point", "coordinates": [-81.146708, 25.855618]}, "properties": {"id": 12, "diameter_m": 129.3, "peak_height_m": 15.0, "circularity": 0.63, "ring_forest": 0.17, "profile_m": [8.2, 10.3, 11.8, 9.7, 8.4, 6.8, 4.7, 3.6], "centre_rise_m": -0.2, "km_from_boardwalk": 1.54}}, {"type": "Feature", "geometry": {"type": "Point", "coordinates": [-81.18284, 25.856699]}, "properties": {"id": 13, "diameter_m": 108.4, "peak_height_m": 14.4, "circularity": 0.78, "ring_forest": 0.08, "profile_m": [14.3, 12.5, 11.3, 9.1, 7.2, 6.4, 5.5, 3.6], "centre_rise_m": 7.1, "km_from_boardwalk": 3.14}}, {"type": "Feature", "geometry": {"type": "Point", "coordinates": [-81.169426, 25.854827]}, "properties": {"id": 14, "diameter_m": 103.5, "peak_height_m": 14.1, "circularity": 0.61, "ring_forest": 0.1, "profile_m": [9.7, 8.7, 8.8, 8.9, 8.2, 6.5, 4.2, 3.5], "centre_rise_m": 1.5, "km_from_boardwalk": 2.12}}, {"type": "Feature", "geometry": {"type": "Point", "coordinates": [-81.140606, 25.848088]}, "properties": {"id": 15, "diameter_m": 95.3, "peak_height_m": 14.0, "circularity": 0.78, "ring_forest": 0.06, "profile_m": [12.5, 11.8, 11.1, 9.6, 7.7, 5.4, 4.0, 3.2], "centre_rise_m": 4.8, "km_from_boardwalk": 2.57}}, {"type": "Feature", "geometry": {"type": "Point", "coordinates": [-81.177035, 25.850498]}, "properties": {"id": 16, "diameter_m": 101.8, "peak_height_m": 13.9, "circularity": 0.75, "ring_forest": 0.22, "profile_m": [15.4, 14.7, 12.8, 9.2, 6.6, 5.7, 4.1, 4.0], "centre_rise_m": 8.8, "km_from_boardwalk": 3.01}}, {"type": "Feature", "geometry": {"type": "Point", "coordinates": [-81.153647, 25.867093]}, "properties": {"id": 17, "diameter_m": 77.6, "peak_height_m": 13.8, "circularity": 0.84, "ring_forest": 0.17, "profile_m": [6.6, 6.7, 6.9, 7.0, 7.6, 7.5, 6.8, 6.2], "centre_rise_m": -1.0, "km_from_boardwalk": 0.1}}, {"type": "Feature", "geometry": {"type": "Point", "coordinates": [-81.139101, 25.848466]}, "properties": {"id": 18, "diameter_m": 107.3, "peak_height_m": 13.7, "circularity": 0.8, "ring_forest": 0.2, "profile_m": [14.6, 13.1, 11.9, 9.6, 7.7, 5.6, 4.5, 4.2], "centre_rise_m": 6.9, "km_from_boardwalk": 2.62}}, {"type": "Feature", "geometry": {"type": "Point", "coordinates": [-81.135791, 25.854418]}, "properties": {"id": 19, "diameter_m": 69.0, "peak_height_m": 13.6, "circularity": 0.88, "ring_forest": 0.02, "profile_m": [16.6, 15.9, 14.3, 10.9, 7.5, 5.4, 3.9, 2.8], "centre_rise_m": 9.1, "km_from_boardwalk": 2.36}}, {"type": "Feature", "geometry": {"type": "Point", "coordinates": [-81.186239, 25.829672]}, "properties": {"id": 20, "diameter_m": 151.4, "peak_height_m": 13.3, "circularity": 0.66, "ring_forest": 0.21, "profile_m": [12.4, 12.9, 11.0, 9.4, 8.1, 7.4, 5.9, 5.8], "centre_rise_m": 4.3, "km_from_boardwalk": 5.33}}, {"type": "Feature", "geometry": {"type": "Point", "coordinates": [-81.188077, 25.866378]}, "properties": {"id": 21, "diameter_m": 109.9, "peak_height_m": 13.3, "circularity": 0.66, "ring_forest": 0.2, "profile_m": [11.7, 10.9, 10.2, 8.5, 6.9, 5.6, 5.4, 5.2], "centre_rise_m": 4.8, "km_from_boardwalk": 3.42}}, {"type": "Feature", "geometry": {"type": "Point", "coordinates": [-81.160126, 25.866039]}, "properties": {"id": 22, "diameter_m": 108.0, "peak_height_m": 13.2, "circularity": 0.64, "ring_forest": 0.24, "profile_m": [15.5, 12.9, 12.5, 9.9, 8.7, 7.8, 6.2, 4.2], "centre_rise_m": 6.8, "km_from_boardwalk": 0.65}}, {"type": "Feature", "geometry": {"type": "Point", "coordinates": [-81.182615, 25.866213]}, "properties": {"id": 23, "diameter_m": 78.6, "peak_height_m": 12.9, "circularity": 0.71, "ring_forest": 0.14, "profile_m": [12.6, 11.2, 11.3, 10.1, 8.2, 4.9, 3.1, 3.0], "centre_rise_m": 4.4, "km_from_boardwalk": 2.87}}, {"type": "Feature", "geometry": {"type": "Point", "coordinates": [-81.134646, 25.845432]}, "properties": {"id": 24, "diameter_m": 82.5, "peak_height_m": 12.7, "circularity": 0.83, "ring_forest": 0.02, "profile_m": [14.8, 13.2, 11.6, 9.9, 7.4, 5.1, 3.6, 2.6], "centre_rise_m": 7.4, "km_from_boardwalk": 3.15}}, {"type": "Feature", "geometry": {"type": "Point", "coordinates": [-81.166029, 25.858892]}, "properties": {"id": 25, "diameter_m": 105.5, "peak_height_m": 12.4, "circularity": 0.7, "ring_forest": 0.13, "profile_m": [11.8, 11.7, 10.8, 9.0, 6.5, 4.6, 3.3, 2.7], "centre_rise_m": 5.3, "km_from_boardwalk": 1.56}}, {"type": "Feature", "geometry": {"type": "Point", "coordinates": [-81.164861, 25.844693]}, "properties": {"id": 26, "diameter_m": 78.5, "peak_height_m": 12.3, "circularity": 0.76, "ring_forest": 0.14, "profile_m": [14.4, 12.7, 13.4, 10.4, 7.5, 6.1, 4.7, 3.5], "centre_rise_m": 6.9, "km_from_boardwalk": 2.79}}, {"type": "Feature", "geometry": {"type": "Point", "coordinates": [-81.145735, 25.870387]}, "properties": {"id": 27, "diameter_m": 60.5, "peak_height_m": 12.2, "circularity": 0.87, "ring_forest": 0.0, "profile_m": [16.5, 16.1, 14.5, 11.4, 7.9, 4.1, 2.0, 1.6], "centre_rise_m": 8.6, "km_from_boardwalk": 0.87}}, {"type": "Feature", "geometry": {"type": "Point", "coordinates": [-81.187118, 25.864322]}, "properties": {"id": 28, "diameter_m": 110.1, "peak_height_m": 12.1, "circularity": 0.68, "ring_forest": 0.12, "profile_m": [12.2, 11.0, 9.7, 7.6, 7.0, 6.1, 4.2, 3.1], "centre_rise_m": 5.2, "km_from_boardwalk": 3.34}}, {"type": "Feature", "geometry": {"type": "Point", "coordinates": [-81.141843, 25.847927]}, "properties": {"id": 29, "diameter_m": 72.6, "peak_height_m": 12.1, "circularity": 0.89, "ring_forest": 0.0, "profile_m": [14.6, 13.7, 12.2, 9.3, 6.9, 5.3, 4.2, 2.7], "centre_rise_m": 7.7, "km_from_boardwalk": 2.53}}, {"type": "Feature", "geometry": {"type": "Point", "coordinates": [-81.169795, 25.842339]}, "properties": {"id": 30, "diameter_m": 107.5, "peak_height_m": 12.1, "circularity": 0.65, "ring_forest": 0.07, "profile_m": [9.9, 10.7, 11.6, 9.3, 6.0, 3.9, 2.9, 2.5], "centre_rise_m": 3.9, "km_from_boardwalk": 3.24}}, {"type": "Feature", "geometry": {"type": "Point", "coordinates": [-81.157397, 25.863836]}, "properties": {"id": 31, "diameter_m": 63.5, "peak_height_m": 12.0, "circularity": 0.89, "ring_forest": 0.0, "profile_m": [14.3, 15.3, 13.6, 11.4, 8.3, 5.0, 2.1, 1.1], "centre_rise_m": 6.0, "km_from_boardwalk": 0.56}}, {"type": "Feature", "geometry": {"type": "Point", "coordinates": [-81.140181, 25.85489]}, "properties": {"id": 32, "diameter_m": 88.6, "peak_height_m": 12.0, "circularity": 0.61, "ring_forest": 0.09, "profile_m": [8.5, 8.9, 8.5, 7.9, 7.1, 5.6, 4.3, 3.6], "centre_rise_m": 1.4, "km_from_boardwalk": 2.0}}, {"type": "Feature", "geometry": {"type": "Point", "coordinates": [-81.137329, 25.858646]}, "properties": {"id": 33, "diameter_m": 78.4, "peak_height_m": 11.7, "circularity": 0.85, "ring_forest": 0.0, "profile_m": [12.8, 12.3, 12.2, 10.6, 7.3, 4.3, 2.8, 1.4], "centre_rise_m": 5.5, "km_from_boardwalk": 1.96}}, {"type": "Feature", "geometry": {"type": "Point", "coordinates": [-81.135975, 25.869285]}, "properties": {"id": 34, "diameter_m": 77.8, "peak_height_m": 11.6, "circularity": 0.71, "ring_forest": 0.03, "profile_m": [13.6, 11.9, 9.8, 8.3, 6.2, 4.9, 3.3, 2.3], "centre_rise_m": 7.4, "km_from_boardwalk": 1.81}}, {"type": "Feature", "geometry": {"type": "Point", "coordinates": [-81.157112, 25.861278]}, "properties": {"id": 35, "diameter_m": 76.9, "peak_height_m": 11.5, "circularity": 0.86, "ring_forest": 0.13, "profile_m": [11.7, 12.5, 12.6, 10.1, 7.3, 4.6, 2.3, 1.3], "centre_rise_m": 4.4, "km_from_boardwalk": 0.8}}, {"type": "Feature", "geometry": {"type": "Point", "coordinates": [-81.167517, 25.85277]}, "properties": {"id": 36, "diameter_m": 61.6, "peak_height_m": 11.5, "circularity": 0.91, "ring_forest": 0.0, "profile_m": [15.3, 14.4, 13.1, 10.8, 8.1, 4.7, 2.3, 1.2], "centre_rise_m": 7.2, "km_from_boardwalk": 2.15}}, {"type": "Feature", "geometry": {"type": "Point", "coordinates": [-81.145724, 25.847273]}, "properties": {"id": 37, "diameter_m": 102.6, "peak_height_m": 11.5, "circularity": 0.74, "ring_forest": 0.11, "profile_m": [14.1, 10.6, 11.1, 7.3, 7.2, 4.4, 4.3, 4.0], "centre_rise_m": 6.9, "km_from_boardwalk": 2.43}}, {"type": "Feature", "geometry": {"type": "Point", "coordinates": [-81.163507, 25.833416]}, "properties": {"id": 38, "diameter_m": 82.9, "peak_height_m": 11.4, "circularity": 0.62, "ring_forest": 0.11, "profile_m": [9.2, 8.0, 7.6, 6.1, 5.1, 4.4, 3.5, 2.9], "centre_rise_m": 4.1, "km_from_boardwalk": 3.94}}, {"type": "Feature", "geometry": {"type": "Point", "coordinates": [-81.168573, 25.860712]}, "properties": {"id": 39, "diameter_m": 73.2, "peak_height_m": 11.4, "circularity": 0.68, "ring_forest": 0.02, "profile_m": [12.6, 10.0, 8.9, 7.8, 6.7, 5.4, 4.9, 2.9], "centre_rise_m": 5.9, "km_from_boardwalk": 1.66}}, {"type": "Feature", "geometry": {"type": "Point", "coordinates": [-81.142723, 25.826212]}, "properties": {"id": 40, "diameter_m": 92.3, "peak_height_m": 11.3, "circularity": 0.69, "ring_forest": 0.11, "profile_m": [11.6, 11.1, 8.6, 7.2, 5.7, 5.3, 3.8, 3.2], "centre_rise_m": 5.9, "km_from_boardwalk": 4.75}}, {"type": "Feature", "geometry": {"type": "Point", "coordinates": [-81.16387, 25.844518]}, "properties": {"id": 41, "diameter_m": 58.1, "peak_height_m": 11.2, "circularity": 0.87, "ring_forest": 0.19, "profile_m": [5.3, 4.8, 4.8, 4.8, 4.4, 3.6, 4.2, 4.4], "centre_rise_m": 0.9, "km_from_boardwalk": 2.77}}, {"type": "Feature", "geometry": {"type": "Point", "coordinates": [-81.188676, 25.85194]}, "properties": {"id": 42, "diameter_m": 97.8, "peak_height_m": 11.2, "circularity": 0.64, "ring_forest": 0.22, "profile_m": [11.0, 10.2, 8.6, 5.9, 4.7, 3.5, 3.1, 3.0], "centre_rise_m": 6.3, "km_from_boardwalk": 3.9}}, {"type": "Feature", "geometry": {"type": "Point", "coordinates": [-81.167066, 25.845169]}, "properties": {"id": 43, "diameter_m": 106.3, "peak_height_m": 11.2, "circularity": 0.67, "ring_forest": 0.09, "profile_m": [11.0, 10.9, 9.0, 7.7, 6.6, 5.1, 3.2, 2.5], "centre_rise_m": 4.4, "km_from_boardwalk": 2.84}}, {"type": "Feature", "geometry": {"type": "Point", "coordinates": [-81.167727, 25.857452]}, "properties": {"id": 44, "diameter_m": 75.2, "peak_height_m": 11.2, "circularity": 0.71, "ring_forest": 0.14, "profile_m": [15.0, 13.7, 11.6, 8.1, 5.4, 3.8, 3.1, 2.7], "centre_rise_m": 9.6, "km_from_boardwalk": 1.8}}, {"type": "Feature", "geometry": {"type": "Point", "coordinates": [-81.177315, 25.840393]}, "properties": {"id": 45, "diameter_m": 91.7, "peak_height_m": 11.2, "circularity": 0.63, "ring_forest": 0.16, "profile_m": [11.9, 12.6, 11.2, 7.7, 4.9, 3.3, 2.8, 2.6], "centre_rise_m": 7.0, "km_from_boardwalk": 3.84}}, {"type": "Feature", "geometry": {"type": "Point", "coordinates": [-81.15362, 25.869363]}, "properties": {"id": 46, "diameter_m": 60.9, "peak_height_m": 11.1, "circularity": 0.89, "ring_forest": 0.05, "profile_m": [16.7, 14.7, 10.3, 8.4, 5.7, 4.1, 3.1, 2.8], "centre_rise_m": 11.0, "km_from_boardwalk": 0.17}}, {"type": "Feature", "geometry": {"type": "Point", "coordinates": [-81.17398, 25.822611]}, "properties": {"id": 47, "diameter_m": 101.1, "peak_height_m": 11.1, "circularity": 0.75, "ring_forest": 0.21, "profile_m": [12.6, 10.9, 9.1, 8.4, 6.8, 5.1, 4.0, 3.8], "centre_rise_m": 5.8, "km_from_boardwalk": 5.4}}, {"type": "Feature", "geometry": {"type": "Point", "coordinates": [-81.175831, 25.846432]}, "properties": {"id": 48, "diameter_m": 78.8, "peak_height_m": 11.0, "circularity": 0.71, "ring_forest": 0.12, "profile_m": [13.0, 12.8, 11.2, 8.0, 5.7, 4.0, 3.1, 2.8], "centre_rise_m": 7.3, "km_from_boardwalk": 3.23}}, {"type": "Feature", "geometry": {"type": "Point", "coordinates": [-81.153476, 25.82791]}, "properties": {"id": 49, "diameter_m": 65.4, "peak_height_m": 10.9, "circularity": 0.8, "ring_forest": 0.16, "profile_m": [4.0, 5.6, 6.5, 6.4, 6.1, 5.7, 4.8, 3.9], "centre_rise_m": -2.1, "km_from_boardwalk": 4.43}}, {"type": "Feature", "geometry": {"type": "Point", "coordinates": [-81.162294, 25.846842]}, "properties": {"id": 50, "diameter_m": 79.8, "peak_height_m": 10.9, "circularity": 0.72, "ring_forest": 0.16, "profile_m": [3.0, 3.8, 4.1, 4.5, 4.5, 4.2, 3.8, 4.0], "centre_rise_m": -1.5, "km_from_boardwalk": 2.48}}, {"type": "Feature", "geometry": {"type": "Point", "coordinates": [-81.181846, 25.837423]}, "properties": {"id": 51, "diameter_m": 96.6, "peak_height_m": 10.9, "circularity": 0.72, "ring_forest": 0.12, "profile_m": [10.3, 9.4, 8.5, 7.5, 6.5, 4.4, 3.3, 2.9], "centre_rise_m": 3.8, "km_from_boardwalk": 4.38}}, {"type": "Feature", "geometry": {"type": "Point", "coordinates": [-81.17606, 25.839541]}, "properties": {"id": 52, "diameter_m": 85.9, "peak_height_m": 10.6, "circularity": 0.73, "ring_forest": 0.11, "profile_m": [7.5, 10.5, 9.9, 9.2, 7.0, 4.0, 2.1, 2.0], "centre_rise_m": 0.5, "km_from_boardwalk": 3.84}}, {"type": "Feature", "geometry": {"type": "Point", "coordinates": [-81.130476, 25.824999]}, "properties": {"id": 53, "diameter_m": 99.0, "peak_height_m": 10.6, "circularity": 0.75, "ring_forest": 0.06, "profile_m": [10.2, 10.7, 8.8, 7.3, 5.3, 4.2, 3.1, 2.2], "centre_rise_m": 4.9, "km_from_boardwalk": 5.3}}, {"type": "Feature", "geometry": {"type": "Point", "coordinates": [-81.158819, 25.857177]}, "properties": {"id": 54, "diameter_m": 57.9, "peak_height_m": 10.5, "circularity": 0.91, "ring_forest": 0.06, "profile_m": [13.3, 11.6, 9.8, 7.8, 6.2, 4.9, 3.4, 2.3], "centre_rise_m": 7.1, "km_from_boardwalk": 1.28}}, {"type": "Feature", "geometry": {"type": "Point", "coordinates": [-81.164214, 25.854252]}, "properties": {"id": 55, "diameter_m": 73.7, "peak_height_m": 10.4, "circularity": 0.64, "ring_forest": 0.07, "profile_m": [11.3, 11.1, 9.1, 7.5, 5.1, 3.4, 2.7, 2.5], "centre_rise_m": 6.2, "km_from_boardwalk": 1.83}}, {"type": "Feature", "geometry": {"type": "Point", "coordinates": [-81.154725, 25.870887]}, "properties": {"id": 56, "diameter_m": 58.9, "peak_height_m": 10.4, "circularity": 0.9, "ring_forest": 0.0, "profile_m": [13.5, 13.4, 12.3, 10.0, 6.5, 4.3, 2.2, 1.6], "centre_rise_m": 7.0, "km_from_boardwalk": 0.34}}, {"type": "Feature", "geometry": {"type": "Point", "coordinates": [-81.149564, 25.841252]}, "properties": {"id": 57, "diameter_m": 109.8, "peak_height_m": 10.4, "circularity": 0.75, "ring_forest": 0.18, "profile_m": [9.6, 8.5, 8.5, 7.5, 6.4, 4.4, 3.2, 4.1], "centre_rise_m": 3.2, "km_from_boardwalk": 2.98}}, {"type": "Feature", "geometry": {"type": "Point", "coordinates": [-81.145174, 25.864836]}, "properties": {"id": 58, "diameter_m": 59.9, "peak_height_m": 10.2, "circularity": 0.82, "ring_forest": 0.01, "profile_m": [14.4, 13.6, 11.9, 9.1, 5.6, 3.7, 2.3, 1.4], "centre_rise_m": 8.8, "km_from_boardwalk": 0.95}}, {"type": "Feature", "geometry": {"type": "Point", "coordinates": [-81.173869, 25.865339]}, "properties": {"id": 59, "diameter_m": 77.0, "peak_height_m": 10.1, "circularity": 0.74, "ring_forest": 0.19, "profile_m": [13.4, 12.3, 10.1, 6.7, 4.9, 4.2, 4.0, 3.4], "centre_rise_m": 8.5, "km_from_boardwalk": 2.01}}, {"type": "Feature", "geometry": {"type": "Point", "coordinates": [-81.153732, 25.872034]}, "properties": {"id": 60, "diameter_m": 60.4, "peak_height_m": 9.9, "circularity": 0.88, "ring_forest": 0.0, "profile_m": [13.7, 13.6, 12.0, 8.6, 5.6, 3.4, 2.2, 1.7], "centre_rise_m": 8.1, "km_from_boardwalk": 0.46}}, {"type": "Feature", "geometry": {"type": "Point", "coordinates": [-81.174034, 25.840126]}, "properties": {"id": 61, "diameter_m": 99.6, "peak_height_m": 9.8, "circularity": 0.65, "ring_forest": 0.11, "profile_m": [12.1, 10.4, 8.4, 6.7, 5.0, 3.8, 3.2, 2.4], "centre_rise_m": 7.1, "km_from_boardwalk": 3.67}}, {"type": "Feature", "geometry": {"type": "Point", "coordinates": [-81.147656, 25.857098]}, "properties": {"id": 62, "diameter_m": 59.1, "peak_height_m": 9.8, "circularity": 0.9, "ring_forest": 0.0, "profile_m": [14.1, 13.4, 11.4, 9.1, 6.7, 4.1, 1.8, 1.0], "centre_rise_m": 7.4, "km_from_boardwalk": 1.35}}, {"type": "Feature", "geometry": {"type": "Point", "coordinates": [-81.185085, 25.846113]}, "properties": {"id": 63, "diameter_m": 110.0, "peak_height_m": 9.7, "circularity": 0.72, "ring_forest": 0.01, "profile_m": [12.3, 9.1, 6.8, 6.5, 5.2, 4.5, 3.3, 2.3], "centre_rise_m": 7.1, "km_from_boardwalk": 3.94}}, {"type": "Feature", "geometry": {"type": "Point", "coordinates": [-81.158231, 25.855311]}, "properties": {"id": 64, "diameter_m": 58.6, "peak_height_m": 9.7, "circularity": 0.89, "ring_forest": 0.0, "profile_m": [14.4, 13.6, 12.2, 9.4, 5.3, 3.4, 2.1, 1.5], "centre_rise_m": 9.1, "km_from_boardwalk": 1.46}}, {"type": "Feature", "geometry": {"type": "Point", "coordinates": [-81.156269, 25.862839]}, "properties": {"id": 65, "diameter_m": 56.5, "peak_height_m": 9.6, "circularity": 0.89, "ring_forest": 0.0, "profile_m": [14.2, 13.5, 11.8, 9.0, 6.3, 3.4, 1.9, 1.3], "centre_rise_m": 7.9, "km_from_boardwalk": 0.6}}, {"type": "Feature", "geometry": {"type": "Point", "coordinates": [-81.13795, 25.867118]}, "properties": {"id": 66, "diameter_m": 67.2, "peak_height_m": 9.6, "circularity": 0.87, "ring_forest": 0.0, "profile_m": [9.1, 11.0, 11.0, 9.7, 6.4, 2.7, 1.4, 1.8], "centre_rise_m": 2.7, "km_from_boardwalk": 1.61}}, {"type": "Feature", "geometry": {"type": "Point", "coordinates": [-81.166479, 25.849831]}, "properties": {"id": 67, "diameter_m": 84.7, "peak_height_m": 9.4, "circularity": 0.64, "ring_forest": 0.19, "profile_m": [12.7, 11.2, 8.7, 5.8, 3.8, 3.1, 2.8, 2.4], "centre_rise_m": 8.9, "km_from_boardwalk": 2.36}}, {"type": "Feature", "geometry": {"type": "Point", "coordinates": [-81.172802, 25.841619]}, "properties": {"id": 68, "diameter_m": 97.1, "peak_height_m": 9.4, "circularity": 0.86, "ring_forest": 0.08, "profile_m": [9.3, 8.1, 8.6, 7.3, 6.4, 3.7, 2.6, 2.3], "centre_rise_m": 2.9, "km_from_boardwalk": 3.47}}, {"type": "Feature", "geometry": {"type": "Point", "coordinates": [-81.155246, 25.865059]}, "properties": {"id": 69, "diameter_m": 88.4, "peak_height_m": 9.3, "circularity": 0.82, "ring_forest": 0.14, "profile_m": [11.6, 8.2, 7.7, 8.2, 5.9, 3.4, 3.0, 2.6], "centre_rise_m": 5.7, "km_from_boardwalk": 0.34}}, {"type": "Feature", "geometry": {"type": "Point", "coordinates": [-81.168882, 25.858631]}, "properties": {"id": 70, "diameter_m": 61.5, "peak_height_m": 9.3, "circularity": 0.85, "ring_forest": 0.0, "profile_m": [13.0, 13.2, 11.1, 8.1, 5.3, 3.3, 2.2, 1.4], "centre_rise_m": 7.7, "km_from_boardwalk": 1.81}}, {"type": "Feature", "geometry": {"type": "Point", "coordinates": [-81.138568, 25.852355]}, "properties": {"id": 71, "diameter_m": 91.9, "peak_height_m": 9.3, "circularity": 0.76, "ring_forest": 0.15, "profile_m": [10.9, 8.9, 8.3, 8.0, 5.9, 4.6, 3.3, 2.7], "centre_rise_m": 5.0, "km_from_boardwalk": 2.31}}, {"type": "Feature", "geometry": {"type": "Point", "coordinates": [-81.163815, 25.863704]}, "properties": {"id": 72, "diameter_m": 56.9, "peak_height_m": 9.3, "circularity": 0.91, "ring_forest": 0.0, "profile_m": [13.6, 12.9, 11.9, 9.5, 5.7, 2.9, 1.7, 1.3], "centre_rise_m": 7.9, "km_from_boardwalk": 1.09}}, {"type": "Feature", "geometry": {"type": "Point", "coordinates": [-81.142052, 25.869791]}, "properties": {"id": 73, "diameter_m": 61.6, "peak_height_m": 9.3, "circularity": 0.89, "ring_forest": 0.15, "profile_m": [7.5, 5.1, 4.9, 4.9, 5.0, 5.1, 4.5, 3.8], "centre_rise_m": 2.5, "km_from_boardwalk": 1.22}}, {"type": "Feature", "geometry": {"type": "Point", "coordinates": [-81.183771, 25.846691]}, "properties": {"id": 74, "diameter_m": 83.1, "peak_height_m": 9.3, "circularity": 0.83, "ring_forest": 0.12, "profile_m": [10.2, 10.8, 8.9, 6.6, 4.9, 3.4, 3.5, 3.6], "centre_rise_m": 5.3, "km_from_boardwalk": 3.8}}, {"type": "Feature", "geometry": {"type": "Point", "coordinates": [-81.167908, 25.841858]}, "properties": {"id": 75, "diameter_m": 91.4, "peak_height_m": 9.2, "circularity": 0.71, "ring_forest": 0.18, "profile_m": [11.2, 9.8, 7.4, 6.5, 5.3, 3.7, 2.8, 2.5], "centre_rise_m": 5.9, "km_from_boardwalk": 3.2}}, {"type": "Feature", "geometry": {"type": "Point", "coordinates": [-81.157647, 25.825333]}, "properties": {"id": 76, "diameter_m": 63.2, "peak_height_m": 9.2, "circularity": 0.77, "ring_forest": 0.16, "profile_m": [7.2, 6.2, 5.2, 3.7, 3.7, 4.0, 3.7, 3.2], "centre_rise_m": 3.5, "km_from_boardwalk": 4.73}}, {"type": "Feature", "geometry": {"type": "Point", "coordinates": [-81.139382, 25.82617]}, "properties": {"id": 77, "diameter_m": 136.6, "peak_height_m": 9.1, "circularity": 0.71, "ring_forest": 0.02, "profile_m": [7.7, 8.6, 7.2, 5.7, 5.3, 4.3, 2.8, 1.6], "centre_rise_m": 2.4, "km_from_boardwalk": 4.85}}, {"type": "Feature", "geometry": {"type": "Point", "coordinates": [-81.143086, 25.850562]}, "properties": {"id": 78, "diameter_m": 59.4, "peak_height_m": 9.1, "circularity": 0.85, "ring_forest": 0.0, "profile_m": [13.7, 12.9, 11.2, 7.3, 4.6, 3.3, 2.2, 1.6], "centre_rise_m": 9.1, "km_from_boardwalk": 2.21}}, {"type": "Feature", "geometry": {"type": "Point", "coordinates": [-81.172602, 25.82264]}, "properties": {"id": 79, "diameter_m": 110.3, "peak_height_m": 9.1, "circularity": 0.65, "ring_forest": 0.2, "profile_m": [9.7, 8.9, 7.3, 6.4, 5.2, 3.9, 2.5, 2.6], "centre_rise_m": 4.5, "km_from_boardwalk": 5.35}}, {"type": "Feature", "geometry": {"type": "Point", "coordinates": [-81.133041, 25.851689]}, "properties": {"id": 80, "diameter_m": 58.9, "peak_height_m": 9.0, "circularity": 0.91, "ring_forest": 0.0, "profile_m": [13.6, 12.3, 10.7, 8.8, 6.1, 3.1, 1.8, 1.1], "centre_rise_m": 7.5, "km_from_boardwalk": 2.76}}, {"type": "Feature", "geometry": {"type": "Point", "coordinates": [-81.178638, 25.835749]}, "properties": {"id": 81, "diameter_m": 98.8, "peak_height_m": 9.0, "circularity": 0.63, "ring_forest": 0.23, "profile_m": [9.3, 8.9, 7.5, 5.0, 4.4, 4.0, 3.3, 3.3], "centre_rise_m": 4.9, "km_from_boardwalk": 4.33}}, {"type": "Feature", "geometry": {"type": "Point", "coordinates": [-81.183542, 25.850879]}, "properties": {"id": 82, "diameter_m": 68.9, "peak_height_m": 9.0, "circularity": 0.77, "ring_forest": 0.15, "profile_m": [12.1, 11.0, 8.7, 7.1, 5.1, 3.4, 2.8, 1.9], "centre_rise_m": 7.0, "km_from_boardwalk": 3.51}}, {"type": "Feature", "geometry": {"type": "Point", "coordinates": [-81.176036, 25.862178]}, "properties": {"id": 83, "diameter_m": 76.9, "peak_height_m": 9.0, "circularity": 0.81, "ring_forest": 0.02, "profile_m": [6.0, 7.8, 9.3, 7.9, 6.7, 3.9, 1.5, 1.2], "centre_rise_m": -0.7, "km_from_boardwalk": 2.3}}, {"type": "Feature", "geometry": {"type": "Point", "coordinates": [-81.16249, 25.856702]}, "properties": {"id": 84, "diameter_m": 61.1, "peak_height_m": 8.9, "circularity": 0.91, "ring_forest": 0.0, "profile_m": [12.9, 12.4, 10.4, 7.7, 5.7, 3.4, 2.2, 1.2], "centre_rise_m": 7.2, "km_from_boardwalk": 1.5}}, {"type": "Feature", "geometry": {"type": "Point", "coordinates": [-81.171215, 25.841473]}, "properties": {"id": 85, "diameter_m": 98.4, "peak_height_m": 8.9, "circularity": 0.62, "ring_forest": 0.22, "profile_m": [9.1, 8.2, 7.3, 5.6, 4.5, 4.0, 3.0, 2.6], "centre_rise_m": 4.6, "km_from_boardwalk": 3.4}}, {"type": "Feature", "geometry": {"type": "Point", "coordinates": [-81.18272, 25.846851]}, "properties": {"id": 86, "diameter_m": 88.7, "peak_height_m": 8.9, "circularity": 0.65, "ring_forest": 0.2, "profile_m": [12.0, 11.0, 7.1, 5.2, 3.7, 3.3, 3.5, 2.9], "centre_rise_m": 8.3, "km_from_boardwalk": 3.7}}, {"type": "Feature", "geometry": {"type": "Point", "coordinates": [-81.133307, 25.859137]}, "properties": {"id": 87, "diameter_m": 51.9, "peak_height_m": 8.9, "circularity": 0.92, "ring_forest": 0.0, "profile_m": [13.8, 13.5, 12.4, 9.5, 6.3, 3.0, 1.1, 0.8], "centre_rise_m": 7.5, "km_from_boardwalk": 2.29}}, {"type": "Feature", "geometry": {"type": "Point", "coordinates": [-81.184004, 25.864369]}, "properties": {"id": 88, "diameter_m": 81.3, "peak_height_m": 8.9, "circularity": 0.74, "ring_forest": 0.2, "profile_m": [6.9, 8.0, 7.8, 6.2, 4.9, 4.3, 3.1, 2.2], "centre_rise_m": 2.0, "km_from_boardwalk": 3.03}}, {"type": "Feature", "geometry": {"type": "Point", "coordinates": [-81.134122, 25.850459]}, "properties": {"id": 89, "diameter_m": 59.6, "peak_height_m": 8.9, "circularity": 0.88, "ring_forest": 0.0, "profile_m": [12.9, 11.9, 11.0, 8.3, 5.3, 3.2, 1.9, 1.1], "centre_rise_m": 7.6, "km_from_boardwalk": 2.77}}, {"type": "Feature", "geometry": {"type": "Point", "coordinates": [-81.16614, 25.862887]}, "properties": {"id": 90, "diameter_m": 63.1, "peak_height_m": 8.9, "circularity": 0.87, "ring_forest": 0.21, "profile_m": [13.9, 12.2, 10.5, 7.3, 4.0, 2.2, 2.1, 2.5], "centre_rise_m": 9.9, "km_from_boardwalk": 1.34}}, {"type": "Feature", "geometry": {"type": "Point", "coordinates": [-81.143575, 25.85571]}, "properties": {"id": 91, "diameter_m": 59.3, "peak_height_m": 8.8, "circularity": 0.92, "ring_forest": 0.0, "profile_m": [13.7, 12.1, 10.1, 7.5, 5.0, 3.1, 2.5, 2.0], "centre_rise_m": 8.7, "km_from_boardwalk": 1.71}}, {"type": "Feature", "geometry": {"type": "Point", "coordinates": [-81.148048, 25.855876]}, "properties": {"id": 92, "diameter_m": 61.6, "peak_height_m": 8.8, "circularity": 0.86, "ring_forest": 0.02, "profile_m": [12.8, 12.0, 9.8, 7.1, 4.5, 3.4, 2.0, 2.4], "centre_rise_m": 8.3, "km_from_boardwalk": 1.46}}, {"type": "Feature", "geometry": {"type": "Point", "coordinates": [-81.144295, 25.868582]}, "properties": {"id": 93, "diameter_m": 71.0, "peak_height_m": 8.8, "circularity": 0.84, "ring_forest": 0.02, "profile_m": [11.1, 9.5, 7.6, 7.2, 5.7, 3.8, 2.6, 1.7], "centre_rise_m": 5.4, "km_from_boardwalk": 0.98}}, {"type": "Feature", "geometry": {"type": "Point", "coordinates": [-81.168971, 25.828224]}, "properties": {"id": 94, "diameter_m": 65.2, "peak_height_m": 8.6, "circularity": 0.7, "ring_forest": 0.05, "profile_m": [10.9, 9.2, 8.1, 5.9, 4.2, 3.3, 3.0, 2.0], "centre_rise_m": 6.7, "km_from_boardwalk": 4.64}}, {"type": "Feature", "geometry": {"type": "Point", "coordinates": [-81.139301, 25.872504]}, "properties": {"id": 95, "diameter_m": 76.5, "peak_height_m": 8.6, "circularity": 0.72, "ring_forest": 0.2, "profile_m": [6.9, 8.1, 7.4, 6.4, 5.5, 4.0, 3.0, 2.8], "centre_rise_m": 1.4, "km_from_boardwalk": 1.56}}, {"type": "Feature", "geometry": {"type": "Point", "coordinates": [-81.171932, 25.843581]}, "properties": {"id": 96, "diameter_m": 82.7, "peak_height_m": 8.5, "circularity": 0.65, "ring_forest": 0.17, "profile_m": [9.7, 11.0, 7.9, 5.6, 3.8, 3.0, 2.4, 2.4], "centre_rise_m": 5.9, "km_from_boardwalk": 3.24}}, {"type": "Feature", "geometry": {"type": "Point", "coordinates": [-81.180523, 25.836751]}, "properties": {"id": 97, "diameter_m": 73.5, "peak_height_m": 8.5, "circularity": 0.86, "ring_forest": 0.13, "profile_m": [7.9, 7.1, 6.6, 5.8, 4.8, 4.0, 3.3, 2.9], "centre_rise_m": 3.1, "km_from_boardwalk": 4.35}}, {"type": "Feature", "geometry": {"type": "Point", "coordinates": [-81.141364, 25.855083]}, "properties": {"id": 98, "diameter_m": 79.3, "peak_height_m": 8.5, "circularity": 0.76, "ring_forest": 0.0, "profile_m": [12.3, 10.4, 7.8, 4.9, 3.5, 3.7, 3.4, 2.8], "centre_rise_m": 8.8, "km_from_boardwalk": 1.9}}, {"type": "Feature", "geometry": {"type": "Point", "coordinates": [-81.183351, 25.850163]}, "properties": {"id": 99, "diameter_m": 72.8, "peak_height_m": 8.4, "circularity": 0.8, "ring_forest": 0.16, "profile_m": [10.1, 9.7, 8.3, 6.5, 4.4, 4.0, 2.6, 2.1], "centre_rise_m": 5.7, "km_from_boardwalk": 3.54}}, {"type": "Feature", "geometry": {"type": "Point", "coordinates": [-81.158472, 25.861182]}, "properties": {"id": 100, "diameter_m": 61.9, "peak_height_m": 8.4, "circularity": 0.9, "ring_forest": 0.0, "profile_m": [11.0, 9.6, 9.0, 8.7, 6.2, 2.8, 1.7, 1.5], "centre_rise_m": 4.8, "km_from_boardwalk": 0.87}}, {"type": "Feature", "geometry": {"type": "Point", "coordinates": [-81.135736, 25.870404]}, "properties": {"id": 101, "diameter_m": 69.5, "peak_height_m": 8.4, "circularity": 0.66, "ring_forest": 0.21, "profile_m": [12.9, 10.1, 7.6, 6.1, 3.6, 2.7, 2.7, 2.9], "centre_rise_m": 9.3, "km_from_boardwalk": 1.85}}, {"type": "Feature", "geometry": {"type": "Point", "coordinates": [-81.143248, 25.854157]}, "properties": {"id": 102, "diameter_m": 55.2, "peak_height_m": 8.4, "circularity": 0.86, "ring_forest": 0.01, "profile_m": [12.1, 11.8, 9.7, 7.0, 4.9, 3.3, 2.2, 1.5], "centre_rise_m": 7.2, "km_from_boardwalk": 1.86}}, {"type": "Feature", "geometry": {"type": "Point", "coordinates": [-81.161916, 25.826792]}, "properties": {"id": 103, "diameter_m": 52.6, "peak_height_m": 8.4, "circularity": 0.92, "ring_forest": 0.0, "profile_m": [14.6, 13.4, 11.2, 8.5, 5.1, 2.5, 1.3, 1.3], "centre_rise_m": 9.5, "km_from_boardwalk": 4.62}}, {"type": "Feature", "geometry": {"type": "Point", "coordinates": [-81.154185, 25.828749]}, "properties": {"id": 104, "diameter_m": 88.3, "peak_height_m": 8.4, "circularity": 0.78, "ring_forest": 0.11, "profile_m": [9.0, 8.9, 8.3, 5.9, 4.1, 2.9, 2.9, 2.5], "centre_rise_m": 4.9, "km_from_boardwalk": 4.34}}, {"type": "Feature", "geometry": {"type": "Point", "coordinates": [-81.139452, 25.868666]}, "properties": {"id": 105, "diameter_m": 51.3, "peak_height_m": 8.4, "circularity": 0.92, "ring_forest": 0.0, "profile_m": [15.0, 14.7, 12.0, 8.0, 4.4, 2.6, 1.5, 1.1], "centre_rise_m": 10.6, "km_from_boardwalk": 1.46}}, {"type": "Feature", "geometry": {"type": "Point", "coordinates": [-81.142172, 25.841108]}, "properties": {"id": 106, "diameter_m": 66.2, "peak_height_m": 8.2, "circularity": 0.83, "ring_forest": 0.0, "profile_m": [11.2, 10.3, 8.4, 5.7, 4.1, 3.9, 3.1, 1.8], "centre_rise_m": 7.1, "km_from_boardwalk": 3.19}}, {"type": "Feature", "geometry": {"type": "Point", "coordinates": [-81.161958, 25.858537]}, "properties": {"id": 107, "diameter_m": 58.9, "peak_height_m": 8.1, "circularity": 0.91, "ring_forest": 0.0, "profile_m": [12.8, 11.2, 9.7, 7.0, 4.8, 3.4, 2.3, 1.0], "centre_rise_m": 8.0, "km_from_boardwalk": 1.31}}, {"type": "Feature", "geometry": {"type": "Point", "coordinates": [-81.15456, 25.838268]}, "properties": {"id": 108, "diameter_m": 69.9, "peak_height_m": 8.1, "circularity": 0.87, "ring_forest": 0.01, "profile_m": [9.8, 8.7, 7.7, 6.1, 4.4, 3.5, 3.0, 2.2], "centre_rise_m": 5.4, "km_from_boardwalk": 3.28}}, {"type": "Feature", "geometry": {"type": "Point", "coordinates": [-81.142352, 25.853817]}, "properties": {"id": 109, "diameter_m": 65.9, "peak_height_m": 8.0, "circularity": 0.81, "ring_forest": 0.02, "profile_m": [12.9, 10.4, 7.0, 5.6, 4.1, 3.5, 2.6, 2.0], "centre_rise_m": 8.8, "km_from_boardwalk": 1.95}}, {"type": "Feature", "geometry": {"type": "Point", "coordinates": [-81.187405, 25.849053]}, "properties": {"id": 110, "diameter_m": 75.1, "peak_height_m": 7.9, "circularity": 0.87, "ring_forest": 0.01, "profile_m": [10.2, 9.3, 8.2, 6.4, 4.5, 2.7, 2.0, 2.1], "centre_rise_m": 5.7, "km_from_boardwalk": 3.94}}, {"type": "Feature", "geometry": {"type": "Point", "coordinates": [-81.130421, 25.842039]}, "properties": {"id": 111, "diameter_m": 67.4, "peak_height_m": 7.9, "circularity": 0.87, "ring_forest": 0.1, "profile_m": [9.9, 9.2, 7.2, 5.4, 4.4, 3.4, 2.9, 3.0], "centre_rise_m": 5.5, "km_from_boardwalk": 3.71}}, {"type": "Feature", "geometry": {"type": "Point", "coordinates": [-81.146464, 25.85895]}, "properties": {"id": 112, "diameter_m": 67.1, "peak_height_m": 7.9, "circularity": 0.79, "ring_forest": 0.15, "profile_m": [11.4, 10.5, 7.9, 5.6, 4.1, 3.4, 2.1, 1.7], "centre_rise_m": 7.3, "km_from_boardwalk": 1.25}}, {"type": "Feature", "geometry": {"type": "Point", "coordinates": [-81.152195, 25.833217]}, "properties": {"id": 113, "diameter_m": 113.3, "peak_height_m": 7.9, "circularity": 0.65, "ring_forest": 0.14, "profile_m": [9.1, 8.3, 6.1, 4.6, 4.1, 2.9, 2.4, 2.1], "centre_rise_m": 5.0, "km_from_boardwalk": 3.85}}, {"type": "Feature", "geometry": {"type": "Point", "coordinates": [-81.171714, 25.842462]}, "properties": {"id": 114, "diameter_m": 70.3, "peak_height_m": 7.9, "circularity": 0.87, "ring_forest": 0.0, "profile_m": [10.0, 8.9, 8.6, 7.0, 5.0, 3.2, 1.8, 0.9], "centre_rise_m": 5.0, "km_from_boardwalk": 3.33}}, {"type": "Feature", "geometry": {"type": "Point", "coordinates": [-81.136013, 25.872144]}, "properties": {"id": 115, "diameter_m": 64.8, "peak_height_m": 7.8, "circularity": 0.86, "ring_forest": 0.15, "profile_m": [10.4, 9.5, 8.6, 7.4, 5.5, 2.8, 1.8, 1.9], "centre_rise_m": 4.9, "km_from_boardwalk": 1.86}}, {"type": "Feature", "geometry": {"type": "Point", "coordinates": [-81.176352, 25.848017]}, "properties": {"id": 116, "diameter_m": 65.1, "peak_height_m": 7.8, "circularity": 0.83, "ring_forest": 0.15, "profile_m": [10.3, 9.8, 9.4, 7.6, 2.9, 2.2, 1.9, 2.0], "centre_rise_m": 7.4, "km_from_boardwalk": 3.14}}, {"type": "Feature", "geometry": {"type": "Point", "coordinates": [-81.130437, 25.867195]}, "properties": {"id": 117, "diameter_m": 56.1, "peak_height_m": 7.8, "circularity": 0.9, "ring_forest": 0.0, "profile_m": [13.8, 12.7, 9.1, 5.8, 4.2, 2.7, 2.3, 2.0], "centre_rise_m": 9.6, "km_from_boardwalk": 2.36}}, {"type": "Feature", "geometry": {"type": "Point", "coordinates": [-81.185704, 25.869919]}, "properties": {"id": 118, "diameter_m": 66.6, "peak_height_m": 7.8, "circularity": 0.87, "ring_forest": 0.0, "profile_m": [13.3, 10.5, 7.1, 5.9, 5.2, 3.0, 2.0, 1.4], "centre_rise_m": 8.1, "km_from_boardwalk": 3.18}}, {"type": "Feature", "geometry": {"type": "Point", "coordinates": [-81.143755, 25.849189]}, "properties": {"id": 119, "diameter_m": 52.7, "peak_height_m": 7.8, "circularity": 0.9, "ring_forest": 0.0, "profile_m": [12.9, 11.8, 11.0, 8.7, 4.2, 1.9, 1.3, 1.0], "centre_rise_m": 8.7, "km_from_boardwalk": 2.31}}, {"type": "Feature", "geometry": {"type": "Point", "coordinates": [-81.184456, 25.869347]}, "properties": {"id": 120, "diameter_m": 69.0, "peak_height_m": 7.8, "circularity": 0.8, "ring_forest": 0.24, "profile_m": [11.9, 9.9, 6.0, 3.9, 3.9, 2.5, 1.9, 1.9], "centre_rise_m": 8.0, "km_from_boardwalk": 3.06}}, {"type": "Feature", "geometry": {"type": "Point", "coordinates": [-81.142018, 25.862927]}, "properties": {"id": 121, "diameter_m": 59.5, "peak_height_m": 7.7, "circularity": 0.79, "ring_forest": 0.01, "profile_m": [12.7, 11.7, 9.3, 5.7, 3.8, 2.5, 1.7, 1.4], "centre_rise_m": 8.9, "km_from_boardwalk": 1.32}}, {"type": "Feature", "geometry": {"type": "Point", "coordinates": [-81.142943, 25.868874]}, "properties": {"id": 122, "diameter_m": 55.0, "peak_height_m": 7.7, "circularity": 0.87, "ring_forest": 0.0, "profile_m": [13.3, 12.4, 10.5, 7.2, 3.7, 2.3, 1.6, 1.2], "centre_rise_m": 9.6, "km_from_boardwalk": 1.11}}, {"type": "Feature", "geometry": {"type": "Point", "coordinates": [-81.168728, 25.851957]}, "properties": {"id": 123, "diameter_m": 83.3, "peak_height_m": 7.7, "circularity": 0.74, "ring_forest": 0.01, "profile_m": [9.4, 8.8, 7.1, 5.5, 4.2, 3.1, 2.0, 1.4], "centre_rise_m": 5.2, "km_from_boardwalk": 2.3}}, {"type": "Feature", "geometry": {"type": "Point", "coordinates": [-81.153481, 25.832458]}, "properties": {"id": 124, "diameter_m": 102.7, "peak_height_m": 7.6, "circularity": 0.73, "ring_forest": 0.15, "profile_m": [8.5, 7.7, 6.9, 5.1, 3.8, 3.1, 2.6, 2.1], "centre_rise_m": 4.7, "km_from_boardwalk": 3.93}}, {"type": "Feature", "geometry": {"type": "Point", "coordinates": [-81.160444, 25.825452]}, "properties": {"id": 125, "diameter_m": 55.5, "peak_height_m": 7.6, "circularity": 0.87, "ring_forest": 0.0, "profile_m": [10.9, 10.6, 9.8, 7.0, 4.6, 2.7, 1.6, 1.0], "centre_rise_m": 6.3, "km_from_boardwalk": 4.74}}, {"type": "Feature", "geometry": {"type": "Point", "coordinates": [-81.177178, 25.861547]}, "properties": {"id": 126, "diameter_m": 68.8, "peak_height_m": 7.6, "circularity": 0.86, "ring_forest": 0.24, "profile_m": [6.9, 8.2, 8.4, 6.8, 4.8, 3.1, 1.7, 1.8], "centre_rise_m": 2.1, "km_from_boardwalk": 2.43}}, {"type": "Feature", "geometry": {"type": "Point", "coordinates": [-81.146441, 25.867557]}, "properties": {"id": 127, "diameter_m": 59.8, "peak_height_m": 7.5, "circularity": 0.81, "ring_forest": 0.01, "profile_m": [9.9, 8.6, 7.3, 5.8, 4.9, 4.0, 2.0, 1.1], "centre_rise_m": 5.0, "km_from_boardwalk": 0.76}}, {"type": "Feature", "geometry": {"type": "Point", "coordinates": [-81.168656, 25.844344]}, "properties": {"id": 128, "diameter_m": 73.7, "peak_height_m": 7.5, "circularity": 0.78, "ring_forest": 0.2, "profile_m": [9.9, 9.5, 7.4, 5.6, 3.8, 3.2, 2.8, 2.7], "centre_rise_m": 6.1, "km_from_boardwalk": 2.99}}, {"type": "Feature", "geometry": {"type": "Point", "coordinates": [-81.14603, 25.86889]}, "properties": {"id": 129, "diameter_m": 53.0, "peak_height_m": 7.4, "circularity": 0.86, "ring_forest": 0.16, "profile_m": [15.7, 13.3, 9.8, 6.9, 2.9, 1.5, 1.2, 1.2], "centre_rise_m": 12.8, "km_from_boardwalk": 0.81}}, {"type": "Feature", "geometry": {"type": "Point", "coordinates": [-81.135236, 25.833794]}, "properties": {"id": 130, "diameter_m": 91.2, "peak_height_m": 7.4, "circularity": 0.65, "ring_forest": 0.06, "profile_m": [9.2, 8.2, 6.9, 4.7, 3.5, 2.8, 2.1, 1.9], "centre_rise_m": 5.7, "km_from_boardwalk": 4.22}}, {"type": "Feature", "geometry": {"type": "Point", "coordinates": [-81.170098, 25.844599]}, "properties": {"id": 131, "diameter_m": 91.4, "peak_height_m": 7.3, "circularity": 0.74, "ring_forest": 0.16, "profile_m": [7.7, 6.6, 5.7, 5.8, 5.2, 3.2, 2.7, 1.9], "centre_rise_m": 2.5, "km_from_boardwalk": 3.04}}, {"type": "Feature", "geometry": {"type": "Point", "coordinates": [-81.140282, 25.869853]}, "properties": {"id": 132, "diameter_m": 101.1, "peak_height_m": 7.2, "circularity": 0.69, "ring_forest": 0.24, "profile_m": [8.1, 7.0, 6.6, 5.4, 4.0, 3.1, 3.1, 2.5], "centre_rise_m": 4.1, "km_from_boardwalk": 1.39}}, {"type": "Feature", "geometry": {"type": "Point", "coordinates": [-81.164127, 25.826219]}, "properties": {"id": 133, "diameter_m": 69.1, "peak_height_m": 7.1, "circularity": 0.74, "ring_forest": 0.13, "profile_m": [8.9, 7.7, 6.8, 4.4, 4.0, 3.4, 2.7, 2.3], "centre_rise_m": 4.9, "km_from_boardwalk": 4.73}}, {"type": "Feature", "geometry": {"type": "Point", "coordinates": [-81.173738, 25.863101]}, "properties": {"id": 134, "diameter_m": 48.8, "peak_height_m": 7.1, "circularity": 0.93, "ring_forest": 0.0, "profile_m": [12.8, 12.3, 10.8, 8.7, 4.3, 1.3, 0.9, 0.6], "centre_rise_m": 8.5, "km_from_boardwalk": 2.05}}, {"type": "Feature", "geometry": {"type": "Point", "coordinates": [-81.147589, 25.861924]}, "properties": {"id": 135, "diameter_m": 102.1, "peak_height_m": 7.1, "circularity": 0.64, "ring_forest": 0.15, "profile_m": [2.4, 3.9, 4.8, 5.0, 5.0, 3.2, 2.3, 1.9], "centre_rise_m": -2.6, "km_from_boardwalk": 0.92}}, {"type": "Feature", "geometry": {"type": "Point", "coordinates": [-81.14115, 25.871426]}, "properties": {"id": 136, "diameter_m": 61.8, "peak_height_m": 7.1, "circularity": 0.82, "ring_forest": 0.05, "profile_m": [10.0, 12.2, 6.7, 5.4, 3.5, 2.7, 1.9, 1.2], "centre_rise_m": 6.5, "km_from_boardwalk": 1.35}}, {"type": "Feature", "geometry": {"type": "Point", "coordinates": [-81.158878, 25.825925]}, "properties": {"id": 137, "diameter_m": 77.5, "peak_height_m": 7.0, "circularity": 0.74, "ring_forest": 0.01, "profile_m": [6.2, 6.5, 6.0, 5.8, 4.9, 2.8, 1.8, 1.2], "centre_rise_m": 1.3, "km_from_boardwalk": 4.67}}, {"type": "Feature", "geometry": {"type": "Point", "coordinates": [-81.142011, 25.84484]}, "properties": {"id": 138, "diameter_m": 60.5, "peak_height_m": 7.0, "circularity": 0.83, "ring_forest": 0.0, "profile_m": [11.8, 10.3, 8.1, 5.5, 3.5, 2.3, 1.7, 1.7], "centre_rise_m": 8.3, "km_from_boardwalk": 2.82}}, {"type": "Feature", "geometry": {"type": "Point", "coordinates": [-81.168471, 25.846106]}, "properties": {"id": 139, "diameter_m": 67.7, "peak_height_m": 7.0, "circularity": 0.62, "ring_forest": 0.19, "profile_m": [8.7, 8.4, 6.6, 4.9, 4.0, 2.9, 2.0, 2.0], "centre_rise_m": 4.7, "km_from_boardwalk": 2.82}}, {"type": "Feature", "geometry": {"type": "Point", "coordinates": [-81.136922, 25.830058]}, "properties": {"id": 140, "diameter_m": 69.2, "peak_height_m": 7.0, "circularity": 0.62, "ring_forest": 0.08, "profile_m": [6.4, 6.1, 5.1, 4.3, 4.1, 3.2, 2.5, 1.6], "centre_rise_m": 2.3, "km_from_boardwalk": 4.53}}, {"type": "Feature", "geometry": {"type": "Point", "coordinates": [-81.14493, 25.850902]}, "properties": {"id": 141, "diameter_m": 71.5, "peak_height_m": 7.0, "circularity": 0.83, "ring_forest": 0.22, "profile_m": [10.0, 8.4, 6.3, 6.1, 4.5, 3.1, 3.6, 2.9], "centre_rise_m": 5.5, "km_from_boardwalk": 2.09}}, {"type": "Feature", "geometry": {"type": "Point", "coordinates": [-81.135676, 25.844496]}, "properties": {"id": 142, "diameter_m": 66.6, "peak_height_m": 6.9, "circularity": 0.85, "ring_forest": 0.01, "profile_m": [9.1, 8.9, 7.8, 5.9, 3.9, 2.1, 1.8, 1.4], "centre_rise_m": 5.2, "km_from_boardwalk": 3.18}}, {"type": "Feature", "geometry": {"type": "Point", "coordinates": [-81.147544, 25.866921]}, "properties": {"id": 143, "diameter_m": 102.5, "peak_height_m": 6.9, "circularity": 0.75, "ring_forest": 0.11, "profile_m": [8.9, 6.3, 6.4, 5.6, 3.5, 2.4, 1.9, 1.7], "centre_rise_m": 5.4, "km_from_boardwalk": 0.66}}, {"type": "Feature", "geometry": {"type": "Point", "coordinates": [-81.140752, 25.872334]}, "properties": {"id": 144, "diameter_m": 80.9, "peak_height_m": 6.8, "circularity": 0.62, "ring_forest": 0.07, "profile_m": [5.2, 5.2, 6.8, 4.4, 3.7, 2.5, 2.0, 1.6], "centre_rise_m": 1.5, "km_from_boardwalk": 1.42}}, {"type": "Feature", "geometry": {"type": "Point", "coordinates": [-81.141205, 25.863238]}, "properties": {"id": 145, "diameter_m": 52.9, "peak_height_m": 6.8, "circularity": 0.9, "ring_forest": 0.04, "profile_m": [12.3, 10.9, 9.5, 6.9, 3.7, 1.8, 1.0, 0.8], "centre_rise_m": 8.6, "km_from_boardwalk": 1.38}}, {"type": "Feature", "geometry": {"type": "Point", "coordinates": [-81.140615, 25.853845]}, "properties": {"id": 146, "diameter_m": 101.1, "peak_height_m": 6.8, "circularity": 0.61, "ring_forest": 0.19, "profile_m": [7.3, 6.8, 5.7, 4.2, 3.9, 3.0, 2.8, 2.6], "centre_rise_m": 3.4, "km_from_boardwalk": 2.05}}, {"type": "Feature", "geometry": {"type": "Point", "coordinates": [-81.160768, 25.855822]}, "properties": {"id": 147, "diameter_m": 65.1, "peak_height_m": 6.8, "circularity": 0.79, "ring_forest": 0.08, "profile_m": [7.1, 7.0, 7.2, 6.5, 4.5, 2.2, 1.5, 0.9], "centre_rise_m": 2.6, "km_from_boardwalk": 1.5}}, {"type": "Feature", "geometry": {"type": "Point", "coordinates": [-81.145663, 25.871761]}, "properties": {"id": 148, "diameter_m": 57.9, "peak_height_m": 6.8, "circularity": 0.8, "ring_forest": 0.04, "profile_m": [11.6, 10.8, 8.5, 5.6, 3.1, 1.5, 1.4, 1.2], "centre_rise_m": 8.5, "km_from_boardwalk": 0.94}}, {"type": "Feature", "geometry": {"type": "Point", "coordinates": [-81.153461, 25.82449]}, "properties": {"id": 149, "diameter_m": 73.6, "peak_height_m": 6.7, "circularity": 0.84, "ring_forest": 0.0, "profile_m": [8.8, 8.6, 6.2, 4.6, 4.8, 2.6, 1.8, 1.5], "centre_rise_m": 4.0, "km_from_boardwalk": 4.81}}, {"type": "Feature", "geometry": {"type": "Point", "coordinates": [-81.132028, 25.83418]}, "properties": {"id": 150, "diameter_m": 52.9, "peak_height_m": 6.7, "circularity": 0.89, "ring_forest": 0.0, "profile_m": [12.3, 10.7, 8.6, 6.3, 4.3, 1.9, 1.0, 1.1], "centre_rise_m": 8.0, "km_from_boardwalk": 4.33}}, {"type": "Feature", "geometry": {"type": "Point", "coordinates": [-81.182846, 25.853067]}, "properties": {"id": 151, "diameter_m": 55.3, "peak_height_m": 6.7, "circularity": 0.91, "ring_forest": 0.0, "profile_m": [9.8, 9.9, 8.7, 6.5, 4.0, 2.3, 1.4, 0.8], "centre_rise_m": 5.8, "km_from_boardwalk": 3.32}}, {"type": "Feature", "geometry": {"type": "Point", "coordinates": [-81.152568, 25.826623]}, "properties": {"id": 152, "diameter_m": 58.3, "peak_height_m": 6.6, "circularity": 0.82, "ring_forest": 0.17, "profile_m": [10.9, 10.0, 8.8, 5.7, 2.4, 1.5, 1.2, 1.4], "centre_rise_m": 8.5, "km_from_boardwalk": 4.57}}, {"type": "Feature", "geometry": {"type": "Point", "coordinates": [-81.163941, 25.826844]}, "properties": {"id": 153, "diameter_m": 59.2, "peak_height_m": 6.5, "circularity": 0.78, "ring_forest": 0.19, "profile_m": [10.6, 10.4, 8.2, 4.5, 3.0, 2.6, 2.3, 2.2], "centre_rise_m": 7.6, "km_from_boardwalk": 4.65}}, {"type": "Feature", "geometry": {"type": "Point", "coordinates": [-81.166903, 25.858218]}, "properties": {"id": 154, "diameter_m": 66.4, "peak_height_m": 6.5, "circularity": 0.83, "ring_forest": 0.22, "profile_m": [7.9, 7.9, 6.7, 5.6, 3.9, 2.7, 2.2, 2.3], "centre_rise_m": 4.0, "km_from_boardwalk": 1.68}}, {"type": "Feature", "geometry": {"type": "Point", "coordinates": [-81.130568, 25.862195]}, "properties": {"id": 155, "diameter_m": 59.4, "peak_height_m": 6.5, "circularity": 0.86, "ring_forest": 0.0, "profile_m": [8.5, 8.3, 8.2, 6.7, 4.2, 2.0, 0.8, 1.0], "centre_rise_m": 4.3, "km_from_boardwalk": 2.43}}, {"type": "Feature", "geometry": {"type": "Point", "coordinates": [-81.188108, 25.849662]}, "properties": {"id": 156, "diameter_m": 82.3, "peak_height_m": 6.4, "circularity": 0.83, "ring_forest": 0.24, "profile_m": [6.8, 6.6, 5.7, 5.7, 4.0, 2.5, 1.8, 1.8], "centre_rise_m": 2.8, "km_from_boardwalk": 3.97}}, {"type": "Feature", "geometry": {"type": "Point", "coordinates": [-81.147131, 25.858369]}, "properties": {"id": 157, "diameter_m": 67.5, "peak_height_m": 6.4, "circularity": 0.75, "ring_forest": 0.15, "profile_m": [8.5, 9.1, 6.3, 4.2, 3.2, 2.4, 1.7, 1.5], "centre_rise_m": 5.3, "km_from_boardwalk": 1.26}}, {"type": "Feature", "geometry": {"type": "Point", "coordinates": [-81.147351, 25.85917]}, "properties": {"id": 158, "diameter_m": 70.0, "peak_height_m": 6.3, "circularity": 0.76, "ring_forest": 0.23, "profile_m": [3.6, 6.2, 7.9, 6.8, 3.8, 2.3, 2.6, 2.0], "centre_rise_m": -0.2, "km_from_boardwalk": 1.17}}, {"type": "Feature", "geometry": {"type": "Point", "coordinates": [-81.175254, 25.861468]}, "properties": {"id": 159, "diameter_m": 62.2, "peak_height_m": 6.2, "circularity": 0.74, "ring_forest": 0.02, "profile_m": [13.4, 10.6, 6.1, 3.3, 3.0, 1.9, 2.0, 1.2], "centre_rise_m": 10.4, "km_from_boardwalk": 2.25}}, {"type": "Feature", "geometry": {"type": "Point", "coordinates": [-81.145851, 25.873074]}, "properties": {"id": 160, "diameter_m": 56.0, "peak_height_m": 6.2, "circularity": 0.9, "ring_forest": 0.0, "profile_m": [8.9, 8.7, 8.4, 6.2, 3.6, 2.1, 1.2, 0.9], "centre_rise_m": 5.3, "km_from_boardwalk": 1.0}}, {"type": "Feature", "geometry": {"type": "Point", "coordinates": [-81.174509, 25.838333]}, "properties": {"id": 161, "diameter_m": 55.2, "peak_height_m": 6.2, "circularity": 0.92, "ring_forest": 0.0, "profile_m": [11.7, 10.3, 8.1, 5.4, 2.8, 1.6, 1.3, 1.3], "centre_rise_m": 8.9, "km_from_boardwalk": 3.87}}, {"type": "Feature", "geometry": {"type": "Point", "coordinates": [-81.14575, 25.861507]}, "properties": {"id": 162, "diameter_m": 60.6, "peak_height_m": 6.2, "circularity": 0.83, "ring_forest": 0.0, "profile_m": [11.2, 9.4, 6.4, 4.9, 3.5, 2.4, 1.3, 0.9], "centre_rise_m": 7.7, "km_from_boardwalk": 1.09}}, {"type": "Feature", "geometry": {"type": "Point", "coordinates": [-81.143624, 25.861931]}, "properties": {"id": 163, "diameter_m": 51.0, "peak_height_m": 6.1, "circularity": 0.89, "ring_forest": 0.0, "profile_m": [11.4, 11.6, 8.9, 5.5, 2.8, 1.7, 0.9, 0.7], "centre_rise_m": 8.6, "km_from_boardwalk": 1.23}}, {"type": "Feature", "geometry": {"type": "Point", "coordinates": [-81.156892, 25.829418]}, "properties": {"id": 164, "diameter_m": 64.9, "peak_height_m": 6.0, "circularity": 0.81, "ring_forest": 0.23, "profile_m": [11.0, 8.2, 5.8, 4.2, 3.5, 3.2, 2.5, 2.2], "centre_rise_m": 7.5, "km_from_boardwalk": 4.27}}, {"type": "Feature", "geometry": {"type": "Point", "coordinates": [-81.18306, 25.852286]}, "properties": {"id": 165, "diameter_m": 51.0, "peak_height_m": 6.0, "circularity": 0.92, "ring_forest": 0.0, "profile_m": [10.2, 10.5, 8.2, 6.8, 3.4, 1.8, 0.8, 0.5], "centre_rise_m": 6.8, "km_from_boardwalk": 3.39}}, {"type": "Feature", "geometry": {"type": "Point", "coordinates": [-81.16511, 25.861594]}, "properties": {"id": 166, "diameter_m": 50.4, "peak_height_m": 6.0, "circularity": 0.92, "ring_forest": 0.0, "profile_m": [11.3, 10.6, 8.8, 6.0, 3.6, 1.9, 0.6, 0.6], "centre_rise_m": 7.7, "km_from_boardwalk": 1.31}}]}